{
    "links": {
        "self": "http://www.neowsapp.com/rest/v1/neo/3670295?api_key=iIulBulltgU6a56xZRHN4H3l9WmuAYTsLGpBGhQ2"
    },
    "id": "3670295",
    "neo_reference_id": "3670295",
    "name": "(2014 JQ2)",
    "designation": "2014 JQ2",
    "nasa_jpl_url": "http://ssd.jpl.nasa.gov/sbdb.cgi?sstr=3670295",
    "absolute_magnitude_h": 22.3,
    "estimated_diameter": {
        "kilometers": {
            "estimated_diameter_min": 0.0921626549,
            "estimated_diameter_max": 0.2060819612
        },
        "meters": {
            "estimated_diameter_min": 92.1626548503,
            "estimated_diameter_max": 206.0819612321
        },
        "miles": {
            "estimated_diameter_min": 0.057267201,
            "estimated_diameter_max": 0.1280533543
        },
        "feet": {
            "estimated_diameter_min": 302.370924539,
            "estimated_diameter_max": 676.1219416887
        }
    },
    "is_potentially_hazardous_asteroid": false,
    "close_approach_data": [
        {
            "close_approach_date": "2013-12-24",
            "close_approach_date_full": "2013-Dec-24 11:36",
            "epoch_date_close_approach": 1387884960000,
            "relative_velocity": {
                "kilometers_per_second": "7.8417978357",
                "kilometers_per_hour": "28230.4722083743",
                "miles_per_hour": "17541.3175785868"
            },
            "miss_distance": {
                "astronomical": "0.3092027368",
                "lunar": "120.2798646152",
                "kilometers": "46256070.823450616",
                "miles": "28742189.6166498608"
            },
            "orbiting_body": "Earth"
        },
        {
            "close_approach_date": "2014-04-18",
            "close_approach_date_full": "2014-Apr-18 16:41",
            "epoch_date_close_approach": 1397839260000,
            "relative_velocity": {
                "kilometers_per_second": "10.2355958502",
                "kilometers_per_hour": "36848.1450608485",
                "miles_per_hour": "22896.0043573922"
            },
            "miss_distance": {
                "astronomical": "0.205207492",
                "lunar": "79.825714388",
                "kilometers": "30698603.71124204",
                "miles": "19075227.816098552"
            },
            "orbiting_body": "Earth"
        }
    ],
    "orbital_data": {
        "orbit_id": "4",
        "orbit_determination_date": "2017-04-06 08:40:40",
        "first_observation_date": "2014-05-01",
        "last_observation_date": "2014-05-04",
        "data_arc_in_days": 3,
        "observations_used": 40,
        "orbit_uncertainty": "9",
        "minimum_orbit_intersection": ".151086",
        "jupiter_tisserand_invariant": "4.191",
        "epoch_osculation": "2456780.5",
        "eccentricity": ".4196726188810573",
        "semi_major_axis": "1.61832629070351",
        "inclination": "15.4090995758908",
        "ascending_node_longitude": "65.938812235182",
        "orbital_period": "751.9648861949422",
        "perihelion_distance": ".9391590580799005",
        "perihelion_argument": "81.34959282180643",
        "aphelion_distance": "2.297493523327119",
        "perihelion_time": "2456711.659151466730",
        "mean_anomaly": "32.95726426453434",
        "mean_motion": ".478745758756975",
        "equinox": "J2000",
        "orbit_class": {
            "orbit_class_type": "APO",
            "orbit_class_description": "Near-Earth asteroid orbits which cross the Earth’s orbit similar to that of 1862 Apollo",
            "orbit_class_range": "a (semi-major axis) > 1.0 AU; q (perihelion) < 1.017 AU"
        }
    },
    "is_sentry_object": false
}